[{"OBJECT_NAME":"SPACEBEENZ-16","OBJECT_ID":"2022-047C","EPOCH":"2022-08-18T10:55:25.224384","MEAN_MOTION":15.14810815,"ECCENTRICITY":0.0007816,"INCLINATION":97.4476,"RA_OF_ASC_NODE":314.0565,"ARG_OF_PERICENTER":326.0421,"MEAN_ANOMALY":34.031,"EPHEMERIS_TYPE":0,"CLASSIFICATION_TYPE":"U","NORAD_CAT_ID":52396,"ELEMENT_SET_NO":999,"REV_AT_EPOCH":1773,"BSTAR":0.00070354,"MEAN_MOTION_DOT":0.00013023,"MEAN_MOTION_DDOT":0},{"OBJECT_NAME":"SPACEBEENZ-17","OBJECT_ID":"2022-047D","EPOCH":"2022-08-18T10:57:11.345184","MEAN_MOTION":15.14782424,"ECCENTRICITY":0.0007799,"INCLINATION":97.4477,"RA_OF_ASC_NODE":314.0554,"ARG_OF_PERICENTER":326.0933,"MEAN_ANOMALY":33.98,"EPHEMERIS_TYPE":0,"CLASSIFICATION_TYPE":"U","NORAD_CAT_ID":52397,"ELEMENT_SET_NO":999,"REV_AT_EPOCH":1773,"BSTAR":0.00070916,"MEAN_MOTION_DOT":0.00013117,"MEAN_MOTION_DDOT":0},{"OBJECT_NAME":"SPACEBEENZ-18","OBJECT_ID":"2022-047E","EPOCH":"2022-08-18T04:37:30.955296","MEAN_MOTION":15.14770263,"ECCENTRICITY":0.0007795,"INCLINATION":97.4477,"RA_OF_ASC_NODE":313.7962,"ARG_OF_PERICENTER":327.0037,"MEAN_ANOMALY":33.0707,"EPHEMERIS_TYPE":0,"CLASSIFICATION_TYPE":"U","NORAD_CAT_ID":52398,"ELEMENT_SET_NO":999,"REV_AT_EPOCH":1769,"BSTAR":0.00067725,"MEAN_MOTION_DOT":0.00012519,"MEAN_MOTION_DDOT":0},{"OBJECT_NAME":"SPACEBEE-140","OBJECT_ID":"2022-047F","EPOCH":"2022-08-19T04:39:08.481888","MEAN_MOTION":15.14521738,"ECCENTRICITY":0.0007768,"INCLINATION":97.4478,"RA_OF_ASC_NODE":314.7541,"ARG_OF_PERICENTER":323.4028,"MEAN_ANOMALY":36.6673,"EPHEMERIS_TYPE":0,"CLASSIFICATION_TYPE":"U","NORAD_CAT_ID":52399,"ELEMENT_SET_NO":999,"REV_AT_EPOCH":1786,"BSTAR":0.00054349,"MEAN_MOTION_DOT":9.96e-5,"MEAN_MOTION_DDOT":0},{"OBJECT_NAME":"SPACEBEE-141","OBJECT_ID":"2022-047G","EPOCH":"2022-08-18T20:55:41.640672","MEAN_MOTION":15.14298848,"ECCENTRICITY":0.0007756,"INCLINATION":97.448,"RA_OF_ASC_NODE":314.4199,"ARG_OF_PERICENTER":325.2042,"MEAN_ANOMALY":34.8681,"EPHEMERIS_TYPE":0,"CLASSIFICATION_TYPE":"U","NORAD_CAT_ID":52400,"ELEMENT_SET_NO":999,"REV_AT_EPOCH":1779,"BSTAR":0.0004871,"MEAN_MOTION_DOT":8.862e-5,"MEAN_MOTION_DDOT":0},{"OBJECT_NAME":"SPACEBEE-142","OBJECT_ID":"2022-047H","EPOCH":"2022-08-18T21:03:25.786656","MEAN_MOTION":15.14162795,"ECCENTRICITY":0.0007688,"INCLINATION":97.4477,"RA_OF_ASC_NODE":314.4111,"ARG_OF_PERICENTER":326.8124,"MEAN_ANOMALY":33.2625,"EPHEMERIS_TYPE":0,"CLASSIFICATION_TYPE":"U","NORAD_CAT_ID":52401,"ELEMENT_SET_NO":999,"REV_AT_EPOCH":1779,"BSTAR":0.00045407,"MEAN_MOTION_DOT":8.225e-5,"MEAN_MOTION_DDOT":0},{"OBJECT_NAME":"SPACEBEENZ-20","OBJECT_ID":"2022-047J","EPOCH":"2022-08-18T15:49:59.611008","MEAN_MOTION":15.14702702,"ECCENTRICITY":0.0008551,"INCLINATION":97.4472,"RA_OF_ASC_NODE":314.2328,"ARG_OF_PERICENTER":327.7905,"MEAN_ANOMALY":32.2804,"EPHEMERIS_TYPE":0,"CLASSIFICATION_TYPE":"U","NORAD_CAT_ID":52402,"ELEMENT_SET_NO":999,"REV_AT_EPOCH":1776,"BSTAR":0.00059484,"MEAN_MOTION_DOT":0.00010966,"MEAN_MOTION_DDOT":0},{"OBJECT_NAME":"SPACEBEENZ-22","OBJECT_ID":"2022-047K","EPOCH":"2022-08-19T04:34:53.852448","MEAN_MOTION":15.14647479,"ECCENTRICITY":0.0008557,"INCLINATION":97.4472,"RA_OF_ASC_NODE":314.7467,"ARG_OF_PERICENTER":325.4915,"MEAN_ANOMALY":34.576,"EPHEMERIS_TYPE":0,"CLASSIFICATION_TYPE":"U","NORAD_CAT_ID":52403,"ELEMENT_SET_NO":999,"REV_AT_EPOCH":1784,"BSTAR":0.00062819,"MEAN_MOTION_DOT":0.00011567,"MEAN_MOTION_DDOT":0},{"OBJECT_NAME":"SPACEBEENZ-19","OBJECT_ID":"2022-047L","EPOCH":"2022-08-18T04:42:22.722048","MEAN_MOTION":15.14718934,"ECCENTRICITY":0.0008642,"INCLINATION":97.4472,"RA_OF_ASC_NODE":313.7822,"ARG_OF_PERICENTER":329.8993,"MEAN_ANOMALY":30.1741,"EPHEMERIS_TYPE":0,"CLASSIFICATION_TYPE":"U","NORAD_CAT_ID":52404,"ELEMENT_SET_NO":999,"REV_AT_EPOCH":1769,"BSTAR":0.00065805,"MEAN_MOTION_DOT":0.00012146,"MEAN_MOTION_DDOT":0},{"OBJECT_NAME":"SPACEBEENZ-21","OBJECT_ID":"2022-047M","EPOCH":"2022-08-18T11:05:31.831872","MEAN_MOTION":15.1468863,"ECCENTRICITY":0.0008564,"INCLINATION":97.4472,"RA_OF_ASC_NODE":314.0383,"ARG_OF_PERICENTER":328.8738,"MEAN_ANOMALY":31.1986,"EPHEMERIS_TYPE":0,"CLASSIFICATION_TYPE":"U","NORAD_CAT_ID":52405,"ELEMENT_SET_NO":999,"REV_AT_EPOCH":1773,"BSTAR":0.00068256,"MEAN_MOTION_DOT":0.0001259,"MEAN_MOTION_DDOT":0},{"OBJECT_NAME":"SPACEBEE-148","OBJECT_ID":"2022-047N","EPOCH":"2022-08-19T04:46:57.467136","MEAN_MOTION":15.14441209,"ECCENTRICITY":0.0008488,"INCLINATION":97.4472,"RA_OF_ASC_NODE":314.7365,"ARG_OF_PERICENTER":326.3368,"MEAN_ANOMALY":33.7324,"EPHEMERIS_TYPE":0,"CLASSIFICATION_TYPE":"U","NORAD_CAT_ID":52406,"ELEMENT_SET_NO":999,"REV_AT_EPOCH":1784,"BSTAR":0.00052894,"MEAN_MOTION_DOT":9.67e-5,"MEAN_MOTION_DDOT":0},{"OBJECT_NAME":"SPACEBEE-149","OBJECT_ID":"2022-047P","EPOCH":"2022-08-18T11:40:08.385888","MEAN_MOTION":15.14072761,"ECCENTRICITY":0.0008429,"INCLINATION":97.4472,"RA_OF_ASC_NODE":314.0049,"ARG_OF_PERICENTER":330.3578,"MEAN_ANOMALY":29.7175,"EPHEMERIS_TYPE":0,"CLASSIFICATION_TYPE":"U","NORAD_CAT_ID":52407,"ELEMENT_SET_NO":999,"REV_AT_EPOCH":1773,"BSTAR":0.0004137,"MEAN_MOTION_DOT":7.469e-5,"MEAN_MOTION_DDOT":0},{"OBJECT_NAME":"SPACEBEE-153","OBJECT_ID":"2022-047Q","EPOCH":"2022-08-18T20:54:11.494368","MEAN_MOTION":15.14395211,"ECCENTRICITY":0.0008833,"INCLINATION":97.4501,"RA_OF_ASC_NODE":314.45,"ARG_OF_PERICENTER":340.0085,"MEAN_ANOMALY":20.0799,"EPHEMERIS_TYPE":0,"CLASSIFICATION_TYPE":"U","NORAD_CAT_ID":52408,"ELEMENT_SET_NO":999,"REV_AT_EPOCH":1779,"BSTAR":0.00052822,"MEAN_MOTION_DOT":9.645e-5,"MEAN_MOTION_DDOT":0},{"OBJECT_NAME":"SPACEBEE-150","OBJECT_ID":"2022-047R","EPOCH":"2022-08-18T21:07:05.382624","MEAN_MOTION":15.141782,"ECCENTRICITY":0.0008457,"INCLINATION":97.4474,"RA_OF_ASC_NODE":314.399,"ARG_OF_PERICENTER":329.425,"MEAN_ANOMALY":30.6488,"EPHEMERIS_TYPE":0,"CLASSIFICATION_TYPE":"U","NORAD_CAT_ID":52409,"ELEMENT_SET_NO":999,"REV_AT_EPOCH":1779,"BSTAR":0.00047283,"MEAN_MOTION_DOT":8.572e-5,"MEAN_MOTION_DDOT":0},{"OBJECT_NAME":"SPACEBEE-144","OBJECT_ID":"2022-047S","EPOCH":"2022-08-18T21:06:17.968032","MEAN_MOTION":15.1419901,"ECCENTRICITY":0.0007746,"INCLINATION":97.448,"RA_OF_ASC_NODE":314.4103,"ARG_OF_PERICENTER":328.7256,"MEAN_ANOMALY":31.3514,"EPHEMERIS_TYPE":0,"CLASSIFICATION_TYPE":"U","NORAD_CAT_ID":52410,"ELEMENT_SET_NO":999,"REV_AT_EPOCH":1779,"BSTAR":0.00048687,"MEAN_MOTION_DOT":8.833e-5,"MEAN_MOTION_DDOT":0},{"OBJECT_NAME":"SPACEBEE-145","OBJECT_ID":"2022-047T","EPOCH":"2022-08-18T21:10:06.508992","MEAN_MOTION":15.14134878,"ECCENTRICITY":0.0007681,"INCLINATION":97.4479,"RA_OF_ASC_NODE":314.4057,"ARG_OF_PERICENTER":329.1622,"MEAN_ANOMALY":30.9157,"EPHEMERIS_TYPE":0,"CLASSIFICATION_TYPE":"U","NORAD_CAT_ID":52411,"ELEMENT_SET_NO":999,"REV_AT_EPOCH":1779,"BSTAR":0.00047644,"MEAN_MOTION_DOT":8.627e-5,"MEAN_MOTION_DDOT":0},{"OBJECT_NAME":"SPACEBEE-146","OBJECT_ID":"2022-047U","EPOCH":"2022-08-18T21:19:24.869856","MEAN_MOTION":15.13968781,"ECCENTRICITY":0.0007697,"INCLINATION":97.4476,"RA_OF_ASC_NODE":314.394,"ARG_OF_PERICENTER":329.8833,"MEAN_ANOMALY":30.1956,"EPHEMERIS_TYPE":0,"CLASSIFICATION_TYPE":"U","NORAD_CAT_ID":52412,"ELEMENT_SET_NO":999,"REV_AT_EPOCH":1779,"BSTAR":0.000442,"MEAN_MOTION_DOT":7.96e-5,"MEAN_MOTION_DDOT":0}]