SPACEBEENZ-16           
1 52396U 22047C   22230.45515306  .00013023  00000+0  70354-3 0  9998
2 52396  97.4476 314.0565 0007816 326.0421  34.0310 15.14810815 17731
SPACEBEENZ-17           
1 52397U 22047D   22230.45638131  .00013117  00000+0  70916-3 0  9999
2 52397  97.4477 314.0554 0007799 326.0933  33.9800 15.14782424 17735
SPACEBEENZ-18           
1 52398U 22047E   22230.19271939  .00012519  00000+0  67725-3 0  9999
2 52398  97.4477 313.7962 0007795 327.0037  33.0707 15.14770263 17697
SPACEBEE-140            
1 52399U 22047F   22231.19384817  .00009960  00000+0  54349-3 0  9995
2 52399  97.4478 314.7541 0007768 323.4028  36.6673 15.14521738 17864
SPACEBEE-141            
1 52400U 22047G   22230.87200973  .00008862  00000+0  48710-3 0  9997
2 52400  97.4480 314.4199 0007756 325.2042  34.8681 15.14298848 17793
SPACEBEE-142            
1 52401U 22047H   22230.87738179  .00008225  00000+0  45407-3 0  9995
2 52401  97.4477 314.4111 0007688 326.8124  33.2625 15.14162795 17798
SPACEBEENZ-20           
1 52402U 22047J   22230.65971772  .00010966  00000+0  59484-3 0  9995
2 52402  97.4472 314.2328 0008551 327.7905  32.2804 15.14702702 17762
SPACEBEENZ-22           
1 52403U 22047K   22231.19090107  .00011567  00000+0  62819-3 0  9994
2 52403  97.4472 314.7467 0008557 325.4915  34.5760 15.14647479 17848
SPACEBEENZ-19           
1 52404U 22047L   22230.19609632  .00012146  00000+0  65805-3 0  9995
2 52404  97.4472 313.7822 0008642 329.8993  30.1741 15.14718934 17691
SPACEBEENZ-21           
1 52405U 22047M   22230.46217398  .00012590  00000+0  68256-3 0  9996
2 52405  97.4472 314.0383 0008564 328.8738  31.1986 15.14688630 17733
SPACEBEE-148            
1 52406U 22047N   22231.19927624  .00009670  00000+0  52894-3 0  9994
2 52406  97.4472 314.7365 0008488 326.3368  33.7324 15.14441209 17843
SPACEBEE-149            
1 52407U 22047P   22230.48620817  .00007469  00000+0  41370-3 0  9991
2 52407  97.4472 314.0049 0008429 330.3578  29.7175 15.14072761 17739
SPACEBEE-153            
1 52408U 22047Q   22230.87096637  .00009645  00000+0  52822-3 0  9994
2 52408  97.4501 314.4500 0008833 340.0085  20.0799 15.14395211 17799
SPACEBEE-150            
1 52409U 22047R   22230.87992341  .00008572  00000+0  47283-3 0  9995
2 52409  97.4474 314.3990 0008457 329.4250  30.6488 15.14178200 17797
SPACEBEE-144            
1 52410U 22047S   22230.87937463  .00008833  00000+0  48687-3 0  9990
2 52410  97.4480 314.4103 0007746 328.7256  31.3514 15.14199010 17791
SPACEBEE-145            
1 52411U 22047T   22230.88201978  .00008627  00000+0  47644-3 0  9990
2 52411  97.4479 314.4057 0007681 329.1622  30.9157 15.14134878 17797
SPACEBEE-146            
1 52412U 22047U   22230.88848229  .00007960  00000+0  44200-3 0  9991
2 52412  97.4476 314.3940 0007697 329.8833  30.1956 15.13968781 17799
